{
  "type": "FeatureCollection",
  "features": [
    {
      "type": "Feature",
      "properties": {
        "norad_id": 34492,
        "name": "IRIDIUM 33 DEB",
        "group": "iridium-33-debris",
        "lat": 81.63863236742144,
        "lon": -0.5422264701742754,
        "alt_km": 922.1622643182554,
        "timestamp": "2025-12-12T16:50:33.531263+00:00",
        "meta_object_name": "IRIDIUM 33 DEB",
        "meta_object_id": "1997-051GH",
        "meta_epoch": "2025-12-11T23:52:20.307072",
        "meta_mean_motion": 14.25702027,
        "meta_eccentricity": 0.0188912,
        "meta_inclination": 86.4727,
        "meta_ra_of_asc_node": 334.9304,
        "meta_arg_of_pericenter": 240.6264,
        "meta_mean_anomaly": 175.7475,
        "meta_ephemeris_type": 0,
        "meta_classification_type": "U",
        "meta_norad_cat_id": 34492,
        "meta_element_set_no": 999,
        "meta_rev_at_epoch": 85048,
        "meta_bstar": 0.0061973,
        "meta_mean_motion_dot": 0.00017773,
        "meta_mean_motion_ddot": 0,
        "tle_line1": "1 34492U 97051GH  25345.99467948  .00017773  00000+0  61973-2 0  9991",
        "tle_line2": "2 34492  86.4727 334.9304 0188912 240.6264 175.7475 14.25702027850488"
      },
      "geometry": {
        "type": "Point",
        "coordinates": [
          -0.5422264701742754,
          81.63863236742144
        ]
      }
    },
    {
      "type": "Feature",
      "properties": {
        "norad_id": 34497,
        "name": "IRIDIUM 33 DEB",
        "group": "iridium-33-debris",
        "lat": -38.85680536621912,
        "lon": 49.41178397233707,
        "alt_km": 753.0667081721158,
        "timestamp": "2025-12-12T16:50:33.531274+00:00",
        "meta_object_name": "IRIDIUM 33 DEB",
        "meta_object_id": "1997-051GN",
        "meta_epoch": "2025-12-12T03:42:01.901088",
        "meta_mean_motion": 14.27451136,
        "meta_eccentricity": 0.0078862,
        "meta_inclination": 86.278,
        "meta_ra_of_asc_node": 52.6518,
        "meta_arg_of_pericenter": 341.481,
        "meta_mean_anomaly": 47.7522,
        "meta_ephemeris_type": 0,
        "meta_classification_type": "U",
        "meta_norad_cat_id": 34497,
        "meta_element_set_no": 999,
        "meta_rev_at_epoch": 86875,
        "meta_bstar": 0.00094545609,
        "meta_mean_motion_dot": 2.415e-05,
        "meta_mean_motion_ddot": 0,
        "tle_line1": "1 34497U 97051GN  25346.15418867  .00002415  00000+0  94546-3 0  9991",
        "tle_line2": "2 34497  86.2780  52.6518 0078862 341.4810  47.7522 14.27451136868754"
      },
      "geometry": {
        "type": "Point",
        "coordinates": [
          49.41178397233707,
          -38.85680536621912
        ]
      }
    },
    {
      "type": "Feature",
      "properties": {
        "norad_id": 34508,
        "name": "IRIDIUM 33 DEB",
        "group": "iridium-33-debris",
        "lat": 62.37671338194891,
        "lon": -84.30935035627714,
        "alt_km": 730.9123615452891,
        "timestamp": "2025-12-12T16:50:33.531285+00:00",
        "meta_object_name": "IRIDIUM 33 DEB",
        "meta_object_id": "1997-051GZ",
        "meta_epoch": "2025-12-12T06:16:44.853600",
        "meta_mean_motion": 14.38423427,
        "meta_eccentricity": 0.00660656,
        "meta_inclination": 86.3697,
        "meta_ra_of_asc_node": 102.8455,
        "meta_arg_of_pericenter": 174.5188,
        "meta_mean_anomaly": 185.6749,
        "meta_ephemeris_type": 0,
        "meta_classification_type": "U",
        "meta_norad_cat_id": 34508,
        "meta_element_set_no": 999,
        "meta_rev_at_epoch": 87302,
        "meta_bstar": 0.0024154083,
        "meta_mean_motion_dot": 7.577e-05,
        "meta_mean_motion_ddot": 0,
        "tle_line1": "1 34508U 97051GZ  25346.26163025  .00007577  00000+0  24154-2 0  9990",
        "tle_line2": "2 34508  86.3697 102.8455 0066065 174.5188 185.6749 14.38423427873021"
      },
      "geometry": {
        "type": "Point",
        "coordinates": [
          -84.30935035627714,
          62.37671338194891
        ]
      }
    },
    {
      "type": "Feature",
      "properties": {
        "norad_id": 34521,
        "name": "IRIDIUM 33 DEB",
        "group": "iridium-33-debris",
        "lat": -67.42075480613197,
        "lon": 21.808322743960993,
        "alt_km": 689.4500550442272,
        "timestamp": "2025-12-12T16:50:33.531296+00:00",
        "meta_object_name": "IRIDIUM 33 DEB",
        "meta_object_id": "1997-051HN",
        "meta_epoch": "2025-12-12T04:01:21.502272",
        "meta_mean_motion": 14.63360371,
        "meta_eccentricity": 0.00014766,
        "meta_inclination": 86.3802,
        "meta_ra_of_asc_node": 30.7997,
        "meta_arg_of_pericenter": 216.2058,
        "meta_mean_anomaly": 143.9054,
        "meta_ephemeris_type": 0,
        "meta_classification_type": "U",
        "meta_norad_cat_id": 34521,
        "meta_element_set_no": 999,
        "meta_rev_at_epoch": 88464,
        "meta_bstar": 0.0013718047,
        "meta_mean_motion_dot": 7.108e-05,
        "meta_mean_motion_ddot": 0,
        "tle_line1": "1 34521U 97051HN  25346.16760998  .00007108  00000+0  13718-2 0  9990",
        "tle_line2": "2 34521  86.3802  30.7997 0001476 216.2058 143.9054 14.63360371884641"
      },
      "geometry": {
        "type": "Point",
        "coordinates": [
          21.808322743960993,
          -67.42075480613197
        ]
      }
    },
    {
      "type": "Feature",
      "properties": {
        "norad_id": 34525,
        "name": "IRIDIUM 33 DEB",
        "group": "iridium-33-debris",
        "lat": 65.51419337567327,
        "lon": -141.14615581414668,
        "alt_km": 738.1320487430512,
        "timestamp": "2025-12-12T16:50:33.531306+00:00",
        "meta_object_name": "IRIDIUM 33 DEB",
        "meta_object_id": "1997-051HS",
        "meta_epoch": "2025-12-12T04:55:03.631296",
        "meta_mean_motion": 14.42904301,
        "meta_eccentricity": 0.00066596,
        "meta_inclination": 86.3729,
        "meta_ra_of_asc_node": 47.0719,
        "meta_arg_of_pericenter": 96.5005,
        "meta_mean_anomaly": 318.3145,
        "meta_ephemeris_type": 0,
        "meta_classification_type": "U",
        "meta_norad_cat_id": 34525,
        "meta_element_set_no": 999,
        "meta_rev_at_epoch": 88080,
        "meta_bstar": 0.00059243464,
        "meta_mean_motion_dot": 1.999e-05,
        "meta_mean_motion_ddot": 0,
        "tle_line1": "1 34525U 97051HS  25346.20490314  .00001999  00000+0  59243-3 0  9997",
        "tle_line2": "2 34525  86.3729  47.0719 0006659  96.5005 318.3145 14.42904301880802"
      },
      "geometry": {
        "type": "Point",
        "coordinates": [
          -141.14615581414668,
          65.51419337567327
        ]
      }
    },
    {
      "type": "Feature",
      "properties": {
        "norad_id": 34529,
        "name": "IRIDIUM 33 DEB",
        "group": "iridium-33-debris",
        "lat": 9.128547137913715,
        "lon": 36.01356621071579,
        "alt_km": 761.5336849402838,
        "timestamp": "2025-12-12T16:50:33.531318+00:00",
        "meta_object_name": "IRIDIUM 33 DEB",
        "meta_object_id": "1997-051HW",
        "meta_epoch": "2025-12-11T20:47:45.904128",
        "meta_mean_motion": 14.40614839,
        "meta_eccentricity": 0.00047,
        "meta_inclination": 86.3641,
        "meta_ra_of_asc_node": 35.7841,
        "meta_arg_of_pericenter": 179.4725,
        "meta_mean_anomaly": 180.648,
        "meta_ephemeris_type": 0,
        "meta_classification_type": "U",
        "meta_norad_cat_id": 34529,
        "meta_element_set_no": 999,
        "meta_rev_at_epoch": 88129,
        "meta_bstar": 0.00017623,
        "meta_mean_motion_dot": 5.82e-06,
        "meta_mean_motion_ddot": 0,
        "tle_line1": "1 34529U 97051HW  25345.86650352  .00000582  00000+0  17623-3 0  9995",
        "tle_line2": "2 34529  86.3641  35.7841 0004700 179.4725 180.6480 14.40614839881292"
      },
      "geometry": {
        "type": "Point",
        "coordinates": [
          36.01356621071579,
          9.128547137913715
        ]
      }
    },
    {
      "type": "Feature",
      "properties": {
        "norad_id": 34538,
        "name": "IRIDIUM 33 DEB",
        "group": "iridium-33-debris",
        "lat": -25.819315671726155,
        "lon": -172.62210518049474,
        "alt_km": 768.0543018455228,
        "timestamp": "2025-12-12T16:50:33.531346+00:00",
        "meta_object_name": "IRIDIUM 33 DEB",
        "meta_object_id": "1997-051JF",
        "meta_epoch": "2025-12-11T12:17:49.059168",
        "meta_mean_motion": 14.42637449,
        "meta_eccentricity": 0.00329249,
        "meta_inclination": 86.2774,
        "meta_ra_of_asc_node": 6.0934,
        "meta_arg_of_pericenter": 332.21,
        "meta_mean_anomaly": 180.6153,
        "meta_ephemeris_type": 0,
        "meta_classification_type": "U",
        "meta_norad_cat_id": 34538,
        "meta_element_set_no": 999,
        "meta_rev_at_epoch": 87738,
        "meta_bstar": 0.0015467501,
        "meta_mean_motion_dot": 5.192e-05,
        "meta_mean_motion_ddot": 0,
        "tle_line1": "1 34538U 97051JF  25345.51237337  .00005192  00000+0  15468-2 0  9997",
        "tle_line2": "2 34538  86.2774   6.0934 0032924 332.2100 180.6153 14.42637449877383"
      },
      "geometry": {
        "type": "Point",
        "coordinates": [
          -172.62210518049474,
          -25.819315671726155
        ]
      }
    }
  ]
}